[
    {
        "Altitude(m)": 624790.8160175696,
        "Argument of Periapsis(deg)": 0.0,
        "Eccentricity": 0.0,
        "Inclination(deg)": 60.0,
        "Latitude(deg)": -59.147179121257224,
        "Longitude(deg)": -13.965216363060044,
        "Mean Anomaly(deg)": -81.81819999999999,
        "RAAN(deg)": 160.0,
        "Satellite Name": "Test1 721",
        "Satellite Number": 721,
        "Semi-Major Axis(m)": 6980739.136638005,
        "Time(s)": 0
    },
    {
        "Altitude(m)": 624737.4704544186,
        "Argument of Periapsis(deg)": 0.00010418945913296404,
        "Eccentricity": 0.0,
        "Inclination(deg)": 60.0,
        "Latitude(deg)": -58.9946321744351,
        "Longitude(deg)": -12.845713372349563,
        "Mean Anomaly(deg)": -81.19809385453813,
        "RAAN(deg)": 159.99957995086024,
        "Satellite Name": "Test1 721",
        "Satellite Number": 721,
        "Semi-Major Axis(m)": 6980739.136638005,
        "Time(s)": 10
    }
]